[{"OBJECT_NAME":"COSMOS 2513","OBJECT_ID":"2015-075A","EPOCH":"2026-03-06T16:01:55.053984","MEAN_MOTION":1.00272783,"ECCENTRICITY":0.00021861,"INCLINATION":0.047,"RA_OF_ASC_NODE":107.5823,"ARG_OF_PERICENTER":239.5163,"MEAN_ANOMALY":138.0129,"EPHEMERIS_TYPE":0,"CLASSIFICATION_TYPE":"U","NORAD_CAT_ID":41121,"ELEMENT_SET_NO":999,"REV_AT_EPOCH":3752,"BSTAR":0,"MEAN_MOTION_DOT":-1.42e-6,"MEAN_MOTION_DDOT":0},{"OBJECT_NAME":"EXPRESS-AMU1","OBJECT_ID":"2015-082A","EPOCH":"2026-03-07T01:47:21.461280","MEAN_MOTION":1.00272448,"ECCENTRICITY":0.0003115,"INCLINATION":0.0155,"RA_OF_ASC_NODE":125.3788,"ARG_OF_PERICENTER":206.9774,"MEAN_ANOMALY":255.3333,"EPHEMERIS_TYPE":0,"CLASSIFICATION_TYPE":"U","NORAD_CAT_ID":41191,"ELEMENT_SET_NO":999,"REV_AT_EPOCH":3724,"BSTAR":0,"MEAN_MOTION_DOT":1.53e-6,"MEAN_MOTION_DDOT":0},{"OBJECT_NAME":"GAOFEN-4","OBJECT_ID":"2015-083A","EPOCH":"2026-03-07T00:43:43.834944","MEAN_MOTION":1.0027275,"ECCENTRICITY":0.0003821,"INCLINATION":0.3867,"RA_OF_ASC_NODE":83.855,"ARG_OF_PERICENTER":83.0136,"MEAN_ANOMALY":114.4922,"EPHEMERIS_TYPE":0,"CLASSIFICATION_TYPE":"U","NORAD_CAT_ID":41194,"ELEMENT_SET_NO":999,"REV_AT_EPOCH":3750,"BSTAR":0,"MEAN_MOTION_DOT":-3.37e-6,"MEAN_MOTION_DDOT":0},{"OBJECT_NAME":"BELINTERSAT-1","OBJECT_ID":"2016-001A","EPOCH":"2026-03-07T02:10:57.970272","MEAN_MOTION":1.00271068,"ECCENTRICITY":0.000145,"INCLINATION":0.044,"RA_OF_ASC_NODE":282.7983,"ARG_OF_PERICENTER":50.9788,"MEAN_ANOMALY":275.238,"EPHEMERIS_TYPE":0,"CLASSIFICATION_TYPE":"U","NORAD_CAT_ID":41238,"ELEMENT_SET_NO":999,"REV_AT_EPOCH":3721,"BSTAR":0,"MEAN_MOTION_DOT":1.05e-6,"MEAN_MOTION_DDOT":0},{"OBJECT_NAME":"IRNSS-1E","OBJECT_ID":"2016-003A","EPOCH":"2026-03-06T21:20:21.809184","MEAN_MOTION":1.00273775,"ECCENTRICITY":0.0017636,"INCLINATION":33.0128,"RA_OF_ASC_NODE":61.2221,"ARG_OF_PERICENTER":189.2214,"MEAN_ANOMALY":346.0604,"EPHEMERIS_TYPE":0,"CLASSIFICATION_TYPE":"U","NORAD_CAT_ID":41241,"ELEMENT_SET_NO":999,"REV_AT_EPOCH":3705,"BSTAR":0,"MEAN_MOTION_DOT":-2.93e-6,"MEAN_MOTION_DDOT":0},{"OBJECT_NAME":"INTELSAT 29E (IS-29E)","OBJECT_ID":"2016-004A","EPOCH":"2026-03-07T03:30:38.669760","MEAN_MOTION":1.00628979,"ECCENTRICITY":9.45e-5,"INCLINATION":6.2442,"RA_OF_ASC_NODE":71.5469,"ARG_OF_PERICENTER":246.035,"MEAN_ANOMALY":131.3827,"EPHEMERIS_TYPE":0,"CLASSIFICATION_TYPE":"U","NORAD_CAT_ID":41308,"ELEMENT_SET_NO":999,"REV_AT_EPOCH":3725,"BSTAR":0,"MEAN_MOTION_DOT":5.0e-8,"MEAN_MOTION_DDOT":0},{"OBJECT_NAME":"EUTELSAT 9B","OBJECT_ID":"2016-005A","EPOCH":"2026-03-07T01:45:38.679840","MEAN_MOTION":1.00270642,"ECCENTRICITY":0.0004417,"INCLINATION":0.0314,"RA_OF_ASC_NODE":63.7072,"ARG_OF_PERICENTER":262.8893,"MEAN_ANOMALY":233.5819,"EPHEMERIS_TYPE":0,"CLASSIFICATION_TYPE":"U","NORAD_CAT_ID":41310,"ELEMENT_SET_NO":999,"REV_AT_EPOCH":3709,"BSTAR":0,"MEAN_MOTION_DOT":5.9e-7,"MEAN_MOTION_DDOT":0},{"OBJECT_NAME":"SES-9","OBJECT_ID":"2016-013A","EPOCH":"2026-03-07T00:44:28.762944","MEAN_MOTION":1.00271287,"ECCENTRICITY":0.0001591,"INCLINATION":0.0414,"RA_OF_ASC_NODE":309.9608,"ARG_OF_PERICENTER":91.1075,"MEAN_ANOMALY":243.0757,"EPHEMERIS_TYPE":0,"CLASSIFICATION_TYPE":"U","NORAD_CAT_ID":41380,"ELEMENT_SET_NO":999,"REV_AT_EPOCH":3641,"BSTAR":0,"MEAN_MOTION_DOT":-3.48e-6,"MEAN_MOTION_DDOT":0},{"OBJECT_NAME":"EUTELSAT 65 WEST A","OBJECT_ID":"2016-014A","EPOCH":"2026-03-07T02:42:38.530944","MEAN_MOTION":1.0027157,"ECCENTRICITY":0.0002185,"INCLINATION":0.0753,"RA_OF_ASC_NODE":45.0369,"ARG_OF_PERICENTER":302.5581,"MEAN_ANOMALY":152.6922,"EPHEMERIS_TYPE":0,"CLASSIFICATION_TYPE":"U","NORAD_CAT_ID":41382,"ELEMENT_SET_NO":999,"REV_AT_EPOCH":3651,"BSTAR":0,"MEAN_MOTION_DOT":-2.79e-6,"MEAN_MOTION_DDOT":0},{"OBJECT_NAME":"IRNSS-1F","OBJECT_ID":"2016-015A","EPOCH":"2026-03-07T00:18:51.712128","MEAN_MOTION":1.00272614,"ECCENTRICITY":0.0019119,"INCLINATION":5.0908,"RA_OF_ASC_NODE":99.2051,"ARG_OF_PERICENTER":188.2436,"MEAN_ANOMALY":274.3997,"EPHEMERIS_TYPE":0,"CLASSIFICATION_TYPE":"U","NORAD_CAT_ID":41384,"ELEMENT_SET_NO":999,"REV_AT_EPOCH":3664,"BSTAR":0,"MEAN_MOTION_DOT":1.56e-6,"MEAN_MOTION_DDOT":0},{"OBJECT_NAME":"IRNSS-1G","OBJECT_ID":"2016-027A","EPOCH":"2026-03-06T23:26:38.829120","MEAN_MOTION":1.00267496,"ECCENTRICITY":0.0005349,"INCLINATION":4.9414,"RA_OF_ASC_NODE":99.9465,"ARG_OF_PERICENTER":314.2522,"MEAN_ANOMALY":231.6535,"EPHEMERIS_TYPE":0,"CLASSIFICATION_TYPE":"U","NORAD_CAT_ID":41469,"ELEMENT_SET_NO":999,"REV_AT_EPOCH":3615,"BSTAR":0,"MEAN_MOTION_DOT":-3.37e-6,"MEAN_MOTION_DDOT":0},{"OBJECT_NAME":"JCSAT-2B","OBJECT_ID":"2016-028A","EPOCH":"2026-03-06T22:13:38.688672","MEAN_MOTION":1.00271044,"ECCENTRICITY":8.17e-5,"INCLINATION":0.0203,"RA_OF_ASC_NODE":145.1672,"ARG_OF_PERICENTER":202.7035,"MEAN_ANOMALY":304.1639,"EPHEMERIS_TYPE":0,"CLASSIFICATION_TYPE":"U","NORAD_CAT_ID":41471,"ELEMENT_SET_NO":999,"REV_AT_EPOCH":3610,"BSTAR":0,"MEAN_MOTION_DOT":-1.68e-6,"MEAN_MOTION_DDOT":0},{"OBJECT_NAME":"THAICOM 8","OBJECT_ID":"2016-031A","EPOCH":"2026-03-07T02:18:42.228576","MEAN_MOTION":1.00272558,"ECCENTRICITY":0.0004041,"INCLINATION":0.0737,"RA_OF_ASC_NODE":50.5383,"ARG_OF_PERICENTER":305.2589,"MEAN_ANOMALY":282.2281,"EPHEMERIS_TYPE":0,"CLASSIFICATION_TYPE":"U","NORAD_CAT_ID":41552,"ELEMENT_SET_NO":999,"REV_AT_EPOCH":3569,"BSTAR":0,"MEAN_MOTION_DOT":-1.24e-6,"MEAN_MOTION_DDOT":0},{"OBJECT_NAME":"INTELSAT 31 (IS-31)","OBJECT_ID":"2016-035A","EPOCH":"2026-03-07T03:06:38.820672","MEAN_MOTION":1.00272564,"ECCENTRICITY":0.0001555,"INCLINATION":0.0323,"RA_OF_ASC_NODE":241.21,"ARG_OF_PERICENTER":348.2276,"MEAN_ANOMALY":247.0087,"EPHEMERIS_TYPE":0,"CLASSIFICATION_TYPE":"U","NORAD_CAT_ID":41581,"ELEMENT_SET_NO":999,"REV_AT_EPOCH":3566,"BSTAR":0,"MEAN_MOTION_DOT":-1.53e-6,"MEAN_MOTION_DDOT":0},{"OBJECT_NAME":"BEIDOU-2 G7","OBJECT_ID":"2016-037A","EPOCH":"2026-03-07T00:45:06.204384","MEAN_MOTION":1.00266382,"ECCENTRICITY":0.0007926,"INCLINATION":1.4681,"RA_OF_ASC_NODE":68.2517,"ARG_OF_PERICENTER":342.9061,"MEAN_ANOMALY":235.3173,"EPHEMERIS_TYPE":0,"CLASSIFICATION_TYPE":"U","NORAD_CAT_ID":41586,"ELEMENT_SET_NO":999,"REV_AT_EPOCH":586,"BSTAR":0,"MEAN_MOTION_DOT":-3.55e-6,"MEAN_MOTION_DDOT":0},{"OBJECT_NAME":"ABS-2A (MONGOLSAT-1)","OBJECT_ID":"2016-038A","EPOCH":"2026-03-07T02:17:34.834848","MEAN_MOTION":1.0027101,"ECCENTRICITY":0.0001782,"INCLINATION":0.0088,"RA_OF_ASC_NODE":149.1536,"ARG_OF_PERICENTER":149.4806,"MEAN_ANOMALY":335.2784,"EPHEMERIS_TYPE":0,"CLASSIFICATION_TYPE":"U","NORAD_CAT_ID":41588,"ELEMENT_SET_NO":999,"REV_AT_EPOCH":3568,"BSTAR":0,"MEAN_MOTION_DOT":-8.6e-7,"MEAN_MOTION_DDOT":0},{"OBJECT_NAME":"EUTELSAT 117 WEST B","OBJECT_ID":"2016-038B","EPOCH":"2026-03-07T03:22:38.728128","MEAN_MOTION":1.00270832,"ECCENTRICITY":4.44e-5,"INCLINATION":0.0167,"RA_OF_ASC_NODE":306.1248,"ARG_OF_PERICENTER":315.0686,"MEAN_ANOMALY":197.3291,"EPHEMERIS_TYPE":0,"CLASSIFICATION_TYPE":"U","NORAD_CAT_ID":41589,"ELEMENT_SET_NO":999,"REV_AT_EPOCH":3564,"BSTAR":0,"MEAN_MOTION_DOT":-1.4e-7,"MEAN_MOTION_DDOT":0}]
